*******************************************************************************
Ephemeris / WWW_USER Mon Mar 10 06:52:35 2025 Pasadena, USA      / Horizons    
*******************************************************************************
Target body name: (2018 WV1)                      {source: JPL#17}
Center body name: Earth (399)                     {source: DE441}
Center-site name: Mauna Kea
*******************************************************************************
Start time      : A.D. 2018-Oct-27 04:00:00.0000 UT      
Stop  time      : A.D. 2018-Oct-27 16:11:00.0000 UT      
Step-size       : 1 minutes
*******************************************************************************
Target pole/equ : undefined
Target radii    : undefined                                                    
Center geodetic : 204.5278, 19.8260847, 4.21024   {E-lon(deg),Lat(deg),Alt(km)}
Center cylindric: 204.5278, 6006.35451, 2151.0229 {E-lon(deg),Dxy(km),Dz(km)}
Center pole/equ : ITRF93                          {East-longitude positive}
Center radii    : 6378.137, 6378.137, 6356.752 km {Equator_a, b, pole_c}       
Target primary  : Sun
Vis. interferer : MOON (R_eq= 1737.400) km        {source: DE441}
Rel. light bend : Sun                             {source: DE441}
Rel. lght bnd GM: 1.3271E+11 km^3/s^2                                          
Small-body perts: Yes                             {source: SB441-N16}
Atmos refraction: NO (AIRLESS)
RA format       : HMS
Time format     : CAL 
Calendar mode   : Mixed Julian/Gregorian
RTS-only print  : NO       
EOP file        : eop.250307.p250603                                           
EOP coverage    : DATA-BASED 1962-JAN-20 TO 2025-MAR-07. PREDICTS-> 2025-JUN-02
Units conversion: 1 au= 149597870.700 km, c= 299792.458 km/s, 1 day= 86400.0 s 
Table cut-offs 1: Elevation (-90.0deg=NO ),Airmass (>38.000=NO), Daylight (YES)
Table cut-offs 2: Solar elongation (  0.0,180.0=NO ),Local Hour Angle( 0.0=NO )
Table cut-offs 3: RA/DEC angular rate (     0.0=NO )                           
*******************************************************************************
Initial IAU76/J2000 heliocentric ecliptic osculating elements (au, days, deg.):
  EPOCH=  2458458.5 ! 2018-Dec-06.00 (TDB)         Residual RMS= .12928        
   EC= .06869100257422787  QR= .9715505345748198   TP= 2458416.866413563       
   OM= 248.5061090469913   W=  141.3742304527303   IN= 1.905403987972275       
  Equivalent ICRF heliocentric cartesian coordinates (au, au/d):
   X= 2.787163119783287E-01  Y= 8.719775267121872E-01  Z= 3.748421051204766E-01
  VX=-1.676682657337402E-02 VY= 5.516972965834891E-03 VZ= 1.749720915605096E-03
Asteroid physical parameters (km, seconds, rotational period in hours):        
   GM= n.a.                RAD= n.a.               ROTPER= n.a.                
   H= 30.3                 G= .150                 B-V= n.a.                   
                           ALBEDO= n.a.            STYP= n.a.                  
*******************************************************************************
 Date__(UT)__HR:MN     R.A._________(ICRF)_________DEC
******************************************************
$$SOE
 2018-Oct-27 04:00 C   01 50 29.701375 +21 35 57.72670
 2018-Oct-27 04:01 C   01 50 29.674253 +21 35 58.22672
 2018-Oct-27 04:02 C   01 50 29.646850 +21 35 58.72670
 2018-Oct-27 04:03 C   01 50 29.619165 +21 35 59.22661
 2018-Oct-27 04:04 C   01 50 29.591200 +21 35 59.72647
 2018-Oct-27 04:05 C   01 50 29.562953 +21 36 00.22625
 2018-Oct-27 04:06 C   01 50 29.534425 +21 36 00.72596
 2018-Oct-27 04:07 C   01 50 29.505616 +21 36 01.22559
 2018-Oct-27 04:08 C   01 50 29.476526 +21 36 01.72513
 2018-Oct-27 04:09 C   01 50 29.447155 +21 36 02.22458
 2018-Oct-27 04:10 C   01 50 29.417503 +21 36 02.72393
 2018-Oct-27 04:11 C   01 50 29.387571 +21 36 03.22317
 2018-Oct-27 04:12 C   01 50 29.357357 +21 36 03.72230
 2018-Oct-27 04:13 C   01 50 29.326863 +21 36 04.22131
 2018-Oct-27 04:14 N   01 50 29.296089 +21 36 04.72019
 2018-Oct-27 04:15 N   01 50 29.265034 +21 36 05.21894
 2018-Oct-27 04:16 N   01 50 29.233698 +21 36 05.71756
 2018-Oct-27 04:17 N   01 50 29.202082 +21 36 06.21603
 2018-Oct-27 04:18 N   01 50 29.170187 +21 36 06.71435
 2018-Oct-27 04:19 N   01 50 29.138011 +21 36 07.21251
 2018-Oct-27 04:20 N   01 50 29.105555 +21 36 07.71050
 2018-Oct-27 04:21 N   01 50 29.072819 +21 36 08.20833
 2018-Oct-27 04:22 N   01 50 29.039804 +21 36 08.70599
 2018-Oct-27 04:23 N   01 50 29.006509 +21 36 09.20346
 2018-Oct-27 04:24 N   01 50 28.972935 +21 36 09.70074
 2018-Oct-27 04:25 N   01 50 28.939082 +21 36 10.19783
 2018-Oct-27 04:26 N   01 50 28.904949 +21 36 10.69471
 2018-Oct-27 04:27 N   01 50 28.870538 +21 36 11.19139
 2018-Oct-27 04:28 N   01 50 28.835848 +21 36 11.68785
 2018-Oct-27 04:29 N   01 50 28.800879 +21 36 12.18410
 2018-Oct-27 04:30 N   01 50 28.765632 +21 36 12.68012
 2018-Oct-27 04:31 N   01 50 28.730107 +21 36 13.17590
 2018-Oct-27 04:32 N   01 50 28.694303 +21 36 13.67145
 2018-Oct-27 04:33 N   01 50 28.658222 +21 36 14.16675
 2018-Oct-27 04:34 N   01 50 28.621863 +21 36 14.66181
 2018-Oct-27 04:35 N   01 50 28.585227 +21 36 15.15660
 2018-Oct-27 04:36 N   01 50 28.548313 +21 36 15.65113
 2018-Oct-27 04:37 N   01 50 28.511123 +21 36 16.14539
 2018-Oct-27 04:38 N   01 50 28.473655 +21 36 16.63937
 2018-Oct-27 04:39 N   01 50 28.435911 +21 36 17.13307
 2018-Oct-27 04:40 A   01 50 28.397891 +21 36 17.62649
 2018-Oct-27 04:41 A   01 50 28.359595 +21 36 18.11960
 2018-Oct-27 04:42 A   01 50 28.321022 +21 36 18.61242
 2018-Oct-27 04:43 A   01 50 28.282174 +21 36 19.10493
 2018-Oct-27 04:44 A   01 50 28.243051 +21 36 19.59712
 2018-Oct-27 04:45 A   01 50 28.203652 +21 36 20.08900
 2018-Oct-27 04:46 A   01 50 28.163979 +21 36 20.58055
 2018-Oct-27 04:47 A   01 50 28.124031 +21 36 21.07176
 2018-Oct-27 04:48 A   01 50 28.083809 +21 36 21.56264
 2018-Oct-27 04:49 A   01 50 28.043312 +21 36 22.05318
 2018-Oct-27 04:50 A   01 50 28.002542 +21 36 22.54336
 2018-Oct-27 04:51 A   01 50 27.961499 +21 36 23.03319
 2018-Oct-27 04:52 A   01 50 27.920182 +21 36 23.52265
 2018-Oct-27 04:53 A   01 50 27.878592 +21 36 24.01174
 2018-Oct-27 04:54 A   01 50 27.836730 +21 36 24.50046
 2018-Oct-27 04:55 A   01 50 27.794595 +21 36 24.98880
 2018-Oct-27 04:56 A   01 50 27.752188 +21 36 25.47675
 2018-Oct-27 04:57 A   01 50 27.709510 +21 36 25.96431
 2018-Oct-27 04:58 A   01 50 27.666560 +21 36 26.45146
 2018-Oct-27 04:59 A   01 50 27.623340 +21 36 26.93821
 2018-Oct-27 05:00 A   01 50 27.579848 +21 36 27.42455
 2018-Oct-27 05:01 A   01 50 27.536086 +21 36 27.91047
 2018-Oct-27 05:02 A   01 50 27.492055 +21 36 28.39596
 2018-Oct-27 05:03 A   01 50 27.447753 +21 36 28.88103
 2018-Oct-27 05:04 A   01 50 27.403183 +21 36 29.36565
 2018-Oct-27 05:05     01 50 27.358343 +21 36 29.84984
 2018-Oct-27 05:06     01 50 27.313235 +21 36 30.33358
 2018-Oct-27 05:07     01 50 27.267859 +21 36 30.81686
 2018-Oct-27 05:08     01 50 27.222215 +21 36 31.29968
 2018-Oct-27 05:09     01 50 27.176303 +21 36 31.78203
 2018-Oct-27 05:10     01 50 27.130124 +21 36 32.26391
 2018-Oct-27 05:11     01 50 27.083679 +21 36 32.74532
 2018-Oct-27 05:12     01 50 27.036967 +21 36 33.22623
 2018-Oct-27 05:13     01 50 26.989990 +21 36 33.70666
 2018-Oct-27 05:14     01 50 26.942747 +21 36 34.18659
 2018-Oct-27 05:15     01 50 26.895239 +21 36 34.66602
 2018-Oct-27 05:16     01 50 26.847466 +21 36 35.14494
 2018-Oct-27 05:17     01 50 26.799429 +21 36 35.62334
 2018-Oct-27 05:18     01 50 26.751128 +21 36 36.10122
 2018-Oct-27 05:19     01 50 26.702564 +21 36 36.57858
 2018-Oct-27 05:20     01 50 26.653737 +21 36 37.05540
 2018-Oct-27 05:21     01 50 26.604648 +21 36 37.53168
 2018-Oct-27 05:22     01 50 26.555297 +21 36 38.00742
 2018-Oct-27 05:23     01 50 26.505683 +21 36 38.48261
 2018-Oct-27 05:24     01 50 26.455809 +21 36 38.95725
 2018-Oct-27 05:25     01 50 26.405674 +21 36 39.43132
 2018-Oct-27 05:26     01 50 26.355279 +21 36 39.90482
 2018-Oct-27 05:27     01 50 26.304624 +21 36 40.37775
 2018-Oct-27 05:28     01 50 26.253710 +21 36 40.85010
 2018-Oct-27 05:29     01 50 26.202538 +21 36 41.32186
 2018-Oct-27 05:30     01 50 26.151106 +21 36 41.79303
 2018-Oct-27 05:31     01 50 26.099418 +21 36 42.26360
 2018-Oct-27 05:32     01 50 26.047471 +21 36 42.73357
 2018-Oct-27 05:33     01 50 25.995268 +21 36 43.20294
 2018-Oct-27 05:34     01 50 25.942809 +21 36 43.67168
 2018-Oct-27 05:35     01 50 25.890094 +21 36 44.13981
 2018-Oct-27 05:36     01 50 25.837124 +21 36 44.60731
 2018-Oct-27 05:37     01 50 25.783899 +21 36 45.07418
 2018-Oct-27 05:38     01 50 25.730419 +21 36 45.54041
 2018-Oct-27 05:39     01 50 25.676686 +21 36 46.00599
 2018-Oct-27 05:40     01 50 25.622700 +21 36 46.47093
 2018-Oct-27 05:41     01 50 25.568462 +21 36 46.93521
 2018-Oct-27 05:42     01 50 25.513971 +21 36 47.39883
 2018-Oct-27 05:43     01 50 25.459229 +21 36 47.86179
 2018-Oct-27 05:44  m  01 50 25.404235 +21 36 48.32407
 2018-Oct-27 05:45  m  01 50 25.348992 +21 36 48.78567
 2018-Oct-27 05:46  m  01 50 25.293498 +21 36 49.24659
 2018-Oct-27 05:47  m  01 50 25.237756 +21 36 49.70683
 2018-Oct-27 05:48  m  01 50 25.181764 +21 36 50.16636
 2018-Oct-27 05:49  m  01 50 25.125525 +21 36 50.62520
 2018-Oct-27 05:50  m  01 50 25.069038 +21 36 51.08333
 2018-Oct-27 05:51  m  01 50 25.012304 +21 36 51.54075
 2018-Oct-27 05:52  m  01 50 24.955323 +21 36 51.99745
 2018-Oct-27 05:53  m  01 50 24.898097 +21 36 52.45343
 2018-Oct-27 05:54  m  01 50 24.840626 +21 36 52.90868
 2018-Oct-27 05:55  m  01 50 24.782911 +21 36 53.36320
 2018-Oct-27 05:56  m  01 50 24.724951 +21 36 53.81698
 2018-Oct-27 05:57  m  01 50 24.666748 +21 36 54.27001
 2018-Oct-27 05:58  m  01 50 24.608303 +21 36 54.72230
 2018-Oct-27 05:59  m  01 50 24.549615 +21 36 55.17382
 2018-Oct-27 06:00  m  01 50 24.490686 +21 36 55.62459
 2018-Oct-27 06:01  m  01 50 24.431516 +21 36 56.07459
 2018-Oct-27 06:02  m  01 50 24.372106 +21 36 56.52381
